start=new Date('2021-09-24T00:00:00.000Z').valueOf();
sats=[{"CLASSIFICATION_TYPE":"U","EPOCH":"2021-09-23T16:38:17.647584","FILE":"3125337","CENTER_NAME":"EARTH","LAUNCH_DATE":"2021-05-15","PERIAPSIS":"546.536","SEMIMAJOR_AXIS":"6925.317","MEAN_MOTION":"15.06410310","ARG_OF_PERICENTER":"65.6317","OBJECT_NAME":"STARLINK-2214","TLE_LINE2":"2 48566  53.0548 249.9733 0000933  65.6317 294.4769 15.06410310 19682","ECCENTRICITY":"0.00009330","SITE":"AFETR","TLE_LINE1":"1 48566U 21041P   21266.69325981  .00001751  00000-0  13637-3 0  9994","TIME_SYSTEM":"UTC","MEAN_ELEMENT_THEORY":"SGP4","PERIOD":"95.591","COUNTRY_CODE":"US","DECAY_DATE":null,"ELEMENT_SET_NO":"999","REF_FRAME":"TEME","NORAD_CAT_ID":"48566","APOAPSIS":"547.828","BSTAR":"0.00013637000000","EPHEMERIS_TYPE":"0","MEAN_ANOMALY":"294.4769","RA_OF_ASC_NODE":"249.9733","OBJECT_TYPE":"PAYLOAD","INCLINATION":"53.0548","REV_AT_EPOCH":"1968","RCS_SIZE":"LARGE","MEAN_MOTION_DOT":"0.00001751","OBJECT_ID":"2021-041P","MEAN_MOTION_DDOT":"0.0000000000000","GP_ID":"185351119"},{"REV_AT_EPOCH":"2011","OBJECT_TYPE":"PAYLOAD","INCLINATION":"53.0536","MEAN_MOTION_DDOT":"0.0000000000000","OBJECT_ID":"2021-041Q","GP_ID":"185322546","MEAN_MOTION_DOT":"0.00010000","RCS_SIZE":"LARGE","DECAY_DATE":null,"ELEMENT_SET_NO":"999","COUNTRY_CODE":"US","NORAD_CAT_ID":"48567","REF_FRAME":"TEME","PERIOD":"95.592","MEAN_ANOMALY":"5.5820","RA_OF_ASC_NODE":"248.9653","APOAPSIS":"548.107","EPHEMERIS_TYPE":"0","BSTAR":"0.00068915000000","ECCENTRICITY":"0.00013200","SITE":"AFETR","OBJECT_NAME":"STARLINK-2215","ARG_OF_PERICENTER":"61.6986","TLE_LINE2":"2 48567  53.0536 248.9653 0001320  61.6986   5.5820 15.06406604 20119","TIME_SYSTEM":"UTC","MEAN_ELEMENT_THEORY":"SGP4","TLE_LINE1":"1 48567U 21041Q   21266.91668981  .00010000  00000-0  68915-3 0  9996","EPOCH":"2021-09-23T22:00:01.999584","CLASSIFICATION_TYPE":"U","FILE":"3125097","SEMIMAJOR_AXIS":"6925.328","MEAN_MOTION":"15.06406604","CENTER_NAME":"EARTH","LAUNCH_DATE":"2021-05-15","PERIAPSIS":"546.279"},{"EPOCH":"2021-09-23T15:37:18.628320","CLASSIFICATION_TYPE":"U","FILE":"3125337","SEMIMAJOR_AXIS":"6925.354","MEAN_MOTION":"15.06398340","CENTER_NAME":"EARTH","PERIAPSIS":"546.602","LAUNCH_DATE":"2021-05-15","ECCENTRICITY":"0.00008900","SITE":"AFETR","OBJECT_NAME":"STARLINK-2217","ARG_OF_PERICENTER":"60.9522","TLE_LINE2":"2 48568  53.0476 240.1860 0000890  60.9522 299.1555 15.06398340 19814","TIME_SYSTEM":"UTC","MEAN_ELEMENT_THEORY":"SGP4","TLE_LINE1":"1 48568U 21041R   21266.65091005  .00001700  00000-0  13300-3 0  9990","DECAY_DATE":null,"ELEMENT_SET_NO":"999","COUNTRY_CODE":"US","NORAD_CAT_ID":"48568","REF_FRAME":"TEME","PERIOD":"95.592","MEAN_ANOMALY":"299.1555","RA_OF_ASC_NODE":"240.1860","APOAPSIS":"547.835","EPHEMERIS_TYPE":"0","BSTAR":"0.00013300000000","REV_AT_EPOCH":"1981","OBJECT_TYPE":"PAYLOAD","INCLINATION":"53.0476","OBJECT_ID":"2021-041R","MEAN_MOTION_DDOT":"0.0000000000000","GP_ID":"185351654","MEAN_MOTION_DOT":"0.00001700","RCS_SIZE":"LARGE"},{"SEMIMAJOR_AXIS":"6925.369","MEAN_MOTION":"15.06393170","CENTER_NAME":"EARTH","PERIAPSIS":"546.575","LAUNCH_DATE":"2021-05-15","CLASSIFICATION_TYPE":"U","EPOCH":"2021-09-23T08:16:45.829632","FILE":"3124856","TIME_SYSTEM":"UTC","MEAN_ELEMENT_THEORY":"SGP4","TLE_LINE1":"1 48569U 21041S   21266.34497488 -.00001594  00000-0 -88143-4 0  9993","ECCENTRICITY":"0.00009530","SITE":"AFETR","OBJECT_NAME":"STARLINK-2219","ARG_OF_PERICENTER":"37.2808","TLE_LINE2":"2 48569  53.0566 241.5457 0000953  37.2808 322.8247 15.06393170 19779","MEAN_ANOMALY":"322.8247","RA_OF_ASC_NODE":"241.5457","APOAPSIS":"547.894","BSTAR":"-0.00008814300000","EPHEMERIS_TYPE":"0","COUNTRY_CODE":"US","ELEMENT_SET_NO":"999","DECAY_DATE":null,"REF_FRAME":"TEME","NORAD_CAT_ID":"48569","PERIOD":"95.593","OBJECT_ID":"2021-041S","MEAN_MOTION_DDOT":"0.0000000000000","GP_ID":"185317581","RCS_SIZE":"LARGE","MEAN_MOTION_DOT":"-0.00001594","REV_AT_EPOCH":"1977","OBJECT_TYPE":"PAYLOAD","INCLINATION":"53.0566"},{"OBJECT_TYPE":"PAYLOAD","INCLINATION":"53.0526","REV_AT_EPOCH":"360","MEAN_MOTION_DOT":"0.00029696","RCS_SIZE":"LARGE","OBJECT_ID":"2021-041T","MEAN_MOTION_DDOT":"0.0000000000000","GP_ID":"185351444","PERIOD":"95.593","ELEMENT_SET_NO":"999","DECAY_DATE":null,"COUNTRY_CODE":"US","NORAD_CAT_ID":"48570","REF_FRAME":"TEME","APOAPSIS":"548.059","EPHEMERIS_TYPE":"0","BSTAR":"0.00200500000000","MEAN_ANOMALY":"229.8835","RA_OF_ASC_NODE":"248.9711","OBJECT_NAME":"STARLINK-2220","ARG_OF_PERICENTER":"57.3949","TLE_LINE2":"2 48570  53.0526 248.9711 0001150  57.3949 229.8835 15.06384016  3603","ECCENTRICITY":"0.00011500","SITE":"AFETR","TLE_LINE1":"1 48570U 21041T   21266.91668981  .00029696  00000-0  20050-2 0  9998","MEAN_ELEMENT_THEORY":"SGP4","TIME_SYSTEM":"UTC","EPOCH":"2021-09-23T22:00:01.999584","CLASSIFICATION_TYPE":"U","FILE":"3125337","CENTER_NAME":"EARTH","PERIAPSIS":"546.466","LAUNCH_DATE":"2021-05-15","SEMIMAJOR_AXIS":"6925.398","MEAN_MOTION":"15.06384016"},{"PERIOD":"95.592","COUNTRY_CODE":"US","DECAY_DATE":null,"ELEMENT_SET_NO":"999","REF_FRAME":"TEME","NORAD_CAT_ID":"48571","APOAPSIS":"547.919","BSTAR":"0.00001410800000","EPHEMERIS_TYPE":"0","MEAN_ANOMALY":"305.5220","RA_OF_ASC_NODE":"250.0692","OBJECT_TYPE":"PAYLOAD","INCLINATION":"53.0554","REV_AT_EPOCH":"1968","RCS_SIZE":"LARGE","MEAN_MOTION_DOT":"-0.00000071","OBJECT_ID":"2021-041U","MEAN_MOTION_DDOT":"0.0000000000000","GP_ID":"185351243","CLASSIFICATION_TYPE":"U","EPOCH":"2021-09-23T16:07:49.312992","FILE":"3125337","CENTER_NAME":"EARTH","PERIAPSIS":"546.495","LAUNCH_DATE":"2021-05-15","SEMIMAJOR_AXIS":"6925.342","MEAN_MOTION":"15.06402193","OBJECT_NAME":"STARLINK-2221","ARG_OF_PERICENTER":"54.5864","TLE_LINE2":"2 48571  53.0554 250.0692 0001028  54.5864 305.5220 15.06402193 19688","ECCENTRICITY":"0.00010280","SITE":"AFETR","TLE_LINE1":"1 48571U 21041U   21266.67209853 -.00000071  00000-0  14108-4 0  9997","TIME_SYSTEM":"UTC","MEAN_ELEMENT_THEORY":"SGP4"},{"SEMIMAJOR_AXIS":"6925.337","MEAN_MOTION":"15.06403880","CENTER_NAME":"EARTH","LAUNCH_DATE":"2021-05-15","PERIAPSIS":"546.555","CLASSIFICATION_TYPE":"U","EPOCH":"2021-09-23T16:02:30.073632","FILE":"3125337","TIME_SYSTEM":"UTC","MEAN_ELEMENT_THEORY":"SGP4","TLE_LINE1":"1 48572U 21041V   21266.66840363  .00001727  00000-0  13479-3 0  9991","ECCENTRICITY":"0.00009340","SITE":"AFETR","OBJECT_NAME":"STARLINK-2222","ARG_OF_PERICENTER":"57.5205","TLE_LINE2":"2 48572  53.0545 250.0800 0000934  57.5205 302.5874 15.06403880 19683","MEAN_ANOMALY":"302.5874","RA_OF_ASC_NODE":"250.0800","APOAPSIS":"547.848","BSTAR":"0.00013479000000","EPHEMERIS_TYPE":"0","COUNTRY_CODE":"US","DECAY_DATE":null,"ELEMENT_SET_NO":"999","REF_FRAME":"TEME","NORAD_CAT_ID":"48572","PERIOD":"95.592","MEAN_MOTION_DDOT":"0.0000000000000","OBJECT_ID":"2021-041V","GP_ID":"185351549","RCS_SIZE":"LARGE","MEAN_MOTION_DOT":"0.00001727","REV_AT_EPOCH":"1968","OBJECT_TYPE":"PAYLOAD","INCLINATION":"53.0545"},{"OBJECT_ID":"2021-041W","MEAN_MOTION_DDOT":"0.0000000000000","GP_ID":"185351017","MEAN_MOTION_DOT":"0.00000271","RCS_SIZE":"LARGE","REV_AT_EPOCH":"1981","OBJECT_TYPE":"PAYLOAD","INCLINATION":"53.0490","MEAN_ANOMALY":"314.9062","RA_OF_ASC_NODE":"240.1953","APOAPSIS":"547.830","EPHEMERIS_TYPE":"0","BSTAR":"0.00003706800000","DECAY_DATE":null,"ELEMENT_SET_NO":"999","COUNTRY_CODE":"US","NORAD_CAT_ID":"48573","REF_FRAME":"TEME","PERIOD":"95.593","TIME_SYSTEM":"UTC","MEAN_ELEMENT_THEORY":"SGP4","TLE_LINE1":"1 48573U 21041W   21266.64721659  .00000271  00000-0  37068-4 0  9990","ECCENTRICITY":"0.00008620","SITE":"AFETR","ARG_OF_PERICENTER":"45.1997","OBJECT_NAME":"STARLINK-2224","TLE_LINE2":"2 48573  53.0490 240.1953 0000862  45.1997 314.9062 15.06393606 19818","SEMIMAJOR_AXIS":"6925.368","MEAN_MOTION":"15.06393606","CENTER_NAME":"EARTH","LAUNCH_DATE":"2021-05-15","PERIAPSIS":"546.636","EPOCH":"2021-09-23T15:31:59.513376","CLASSIFICATION_TYPE":"U","FILE":"3125337"},{"MEAN_ELEMENT_THEORY":"SGP4","TIME_SYSTEM":"UTC","TLE_LINE1":"1 48574U 21041X   21266.91668981 -.00027037  00000-0 -61391-3 0  9995","SITE":"AFETR","ECCENTRICITY":"0.00022240","TLE_LINE2":"2 48574  53.0553 217.5089 0002224  29.3142 284.1923 15.42160057  3658","ARG_OF_PERICENTER":"29.3142","OBJECT_NAME":"STARLINK-2225","MEAN_MOTION":"15.42160057","SEMIMAJOR_AXIS":"6817.872","PERIAPSIS":"438.221","LAUNCH_DATE":"2021-05-15","CENTER_NAME":"EARTH","FILE":"3125337","CLASSIFICATION_TYPE":"U","EPOCH":"2021-09-23T22:00:01.999584","GP_ID":"185351120","MEAN_MOTION_DDOT":"0.0000000000000","OBJECT_ID":"2021-041X","RCS_SIZE":"LARGE","MEAN_MOTION_DOT":"-0.00027037","REV_AT_EPOCH":"365","INCLINATION":"53.0553","OBJECT_TYPE":"PAYLOAD","RA_OF_ASC_NODE":"217.5089","MEAN_ANOMALY":"284.1923","BSTAR":"-0.00061391000000","EPHEMERIS_TYPE":"0","APOAPSIS":"441.254","REF_FRAME":"TEME","NORAD_CAT_ID":"48574","COUNTRY_CODE":"US","ELEMENT_SET_NO":"999","DECAY_DATE":null,"PERIOD":"93.376"},{"EPOCH":"2021-09-23T22:00:01.999584","CLASSIFICATION_TYPE":"U","FILE":"3125337","SEMIMAJOR_AXIS":"6817.897","MEAN_MOTION":"15.42151723","CENTER_NAME":"EARTH","PERIAPSIS":"438.379","LAUNCH_DATE":"2021-05-15","ECCENTRICITY":"0.00020280","SITE":"AFETR","OBJECT_NAME":"STARLINK-2227","ARG_OF_PERICENTER":"46.8630","TLE_LINE2":"2 48575  53.0593 220.5192 0002028  46.8630 260.5604 15.42151723  3654","TIME_SYSTEM":"UTC","MEAN_ELEMENT_THEORY":"SGP4","TLE_LINE1":"1 48575U 21041Y   21266.91668981 -.00010255  00000-0 -22652-3 0  9997","DECAY_DATE":null,"ELEMENT_SET_NO":"999","COUNTRY_CODE":"US","NORAD_CAT_ID":"48575","REF_FRAME":"TEME","PERIOD":"93.376","MEAN_ANOMALY":"260.5604","RA_OF_ASC_NODE":"220.5192","APOAPSIS":"441.145","EPHEMERIS_TYPE":"0","BSTAR":"-0.00022652000000","REV_AT_EPOCH":"365","OBJECT_TYPE":"PAYLOAD","INCLINATION":"53.0593","MEAN_MOTION_DDOT":"0.0000000000000","OBJECT_ID":"2021-041Y","GP_ID":"185350920","MEAN_MOTION_DOT":"-0.00010255","RCS_SIZE":"LARGE"}];
